{"spkid": "54213278", "covariance": {"labels": ["e", "q", "tp", "node", "peri", "i"], "data": [["2.76344301290393E-13", "-5.171883316000568E-13", "-1.719714848773074E-11", "-3.447986667119651E-10", "2.925392226818941E-10", "-2.320018454281966E-11"], ["-5.171883316000568E-13", "9.696522176063556E-13", "2.867399775627691E-11", "6.407739767140286E-10", "-5.441172188554066E-10", "4.341408819591061E-11"], ["-1.719714848773074E-11", "2.867399775627691E-11", "9.72557245368202E-9", "2.875789298604765E-8", "-2.263167734638426E-8", "1.149181173976157E-9"], ["-3.447986667119651E-10", "6.407739767140286E-10", "2.875789298604765E-8", "5.134145479819575E-7", "-4.454825697012397E-7", "3.496653771875913E-8"], ["2.925392226818941E-10", "-5.441172188554066E-10", "-2.263167734638426E-8", "-4.454825697012397E-7", "3.884089707892086E-7", "-3.065163217141274E-8"], ["-2.320018454281966E-11", "4.341408819591061E-11", "1.149181173976157E-9", "3.496653771875913E-8", "-3.065163217141274E-8", "2.494902396844209E-9"]], "elements": [{"label": "e", "name": "e", "sigma": 5.25684602485552e-07, "units": null, "title": "eccentricity", "value": ".7603962957602975"}, {"label": "q", "units": "au", "value": ".4871420034570266", "title": "perihelion distance", "name": "q", "sigma": 9.84709204591059e-07}, {"units": "TDB", "title": "time of perihelion passage", "value": "2459440.879083853598", "sigma": 9.86183170292518e-05, "name": "tp", "label": "tp"}, {"value": "170.8500696327615", "title": "longitude of the ascending node", "units": "deg", "sigma": 0.000716529516476438, "name": "om", "label": "node"}, {"label": "peri", "sigma": 0.000623224655151903, "name": "w", "title": "argument of perihelion", "value": "110.3713850697641", "units": "deg"}, {"label": "i", "name": "i", "sigma": 4.99489979563575e-05, "units": "deg", "value": "6.083752724636492", "title": "inclination"}], "epoch": "2459790.5"}, "elements": [{"name": "e", "sigma": "5.0653E-7", "value": ".7591889827518743", "title": "eccentricity", "units": null, "label": "e"}, {"units": "au", "value": "2.037098130549685", "title": "semi-major axis", "sigma": "4.2426E-7", "name": "a", "label": "a"}, {"name": "q", "sigma": "9.4091E-7", "units": "au", "value": ".4905556730519247", "title": "perihelion distance", "label": "q"}, {"label": "i", "units": "deg", "title": "inclination; angle with respect to x-y ecliptic plane", "value": "6.115928725771334", "sigma": "4.9184E-5", "name": "i"}, {"label": "node", "title": "longitude of the ascending node", "value": "169.7691525074957", "units": "deg", "sigma": ".00070893", "name": "om"}, {"sigma": ".00061583", "name": "w", "units": "deg", "value": "111.5714894651578", "title": "argument of perihelion", "label": "peri"}, {"label": "M", "units": "deg", "value": "237.2397111549569", "title": "mean anomaly", "sigma": ".00015322", "name": "ma"}, {"name": "tp", "sigma": ".00056404", "value": "2461562.636044034208", "title": "time of perihelion passage", "units": "TDB", "label": "tp"}, {"name": "per", "sigma": ".00033177", "units": "d", "value": "1061.980035065541", "title": "sidereal orbital period", "label": "period"}, {"label": "n", "units": "deg/d", "title": "mean motion", "value": ".338989423636182", "sigma": "1.059E-7", "name": "n"}, {"label": "Q", "name": "ad", "sigma": "7.4636E-7", "units": "au", "value": "3.583640588047444", "title": "aphelion distance"}], "epoch": "2461200.5"}